NORAD_CAT_ID,OBJECT_NAME,OBJECT_TYPE,EPOCH,MEAN_MOTION,ECCENTRICITY,INCLINATION,RA_OF_ASC_NODE,ARG_OF_PERICENTER,MEAN_ANOMALY,BSTAR,MEAN_MOTION_DOT,MEAN_MOTION_DDOT,TLE_LINE0,TLE_LINE1,TLE_LINE2,SEMIMAJOR_AXIS,PERIOD,APOGEE,PERIGEE,DECAYED
52708.0,STARLINK-3962,PAYLOAD,2023-06-17 14:03:43,15.08821763,0.0001052,53.2163,285.7957,66.1825,293.9277,-0.00016992,-2.99e-05,0.0,0 STARLINK-3962,1 52708U 22053BE  23168.58591793 -.00002990  00000-0 -16992-3 0  9993,2 52708  53.2163 285.7957 0001052  66.1825 293.9277 15.08821763 61145,6917.936,95.439,540.529,539.073,0.0
52708.0,STARLINK-3962,PAYLOAD,2023-06-18 07:32:57,15.08843667,0.0001067,53.2161,282.5234,71.1547,288.9561,0.00010136,1.326e-05,0.0,0 STARLINK-3962,1 52708U 22053BE  23169.31455063  .00001326  00000-0  10136-3 0  9998,2 52708  53.2161 282.5234 0001067  71.1547 288.9561 15.08843667 60628,6917.869,95.437,540.472,538.996,0.0
52708.0,STARLINK-3962,PAYLOAD,2023-06-18 17:05:16,15.08852604,0.0001193,53.2159,280.7393,59.6907,300.4203,0.00091606,0.00014326,0.0,0 STARLINK-3962,1 52708U 22053BE  23169.71199235  .00014326  00000-0  91606-3 0  9993,2 52708  53.2159 280.7393 0001193  59.6907 300.4203 15.08852604 61313,6917.842,95.437,540.532,538.882,0.0
52708.0,STARLINK-3962,PAYLOAD,2023-06-19 10:34:30,15.0884565,0.0001393,53.2179,277.4625,88.3428,271.7724,9.6681e-05,1.251e-05,0.0,0 STARLINK-3962,1 52708U 22053BE  23170.44063099  .00001251  00000-0  96681-4 0  9995,2 52708  53.2179 277.4625 0001393  88.3428 271.7724 15.08845650 60797,6917.863,95.437,540.692,538.764,0.0
52708.0,STARLINK-3962,PAYLOAD,2023-06-19 13:45:16,15.08851522,0.0001117,53.2159,276.8745,58.0759,302.0342,0.00042473,6.48e-05,0.0,0 STARLINK-3962,1 52708U 22053BE  23170.57311082  .00006480  00000-0  42473-3 0  9995,2 52708  53.2159 276.8745 0001117  58.0759 302.0342 15.08851522 61448,6917.845,95.437,540.483,538.937,0.0
52708.0,STARLINK-3962,PAYLOAD,2023-06-20 07:14:31,15.08839954,0.0001163,53.2157,273.6031,65.4608,294.6505,4.5058e-05,4.29e-06,0.0,0 STARLINK-3962,1 52708U 22053BE  23171.30175208  .00000429  00000-0  45058-4 0  9995,2 52708  53.2157 273.6031 0001163  65.4608 294.6505 15.08839954 60929,6917.881,95.438,540.55,538.941,0.0
52708.0,STARLINK-3962,PAYLOAD,2023-06-20 10:25:17,15.08840777,0.0001162,53.2156,273.0088,64.466,295.6452,1.9373e-05,2.1e-07,0.0,0 STARLINK-3962,1 52708U 22053BE  23171.43423256  .00000021  00000-0  19373-4 0  9997,2 52708  53.2156 273.0088 0001162  64.4660 295.6452 15.08840777 61579,6917.878,95.438,540.547,538.939,0.0
52708.0,STARLINK-3962,PAYLOAD,2023-06-20 16:46:50,15.08844502,0.0001064,53.2168,271.8181,62.779,297.331,7.6671e-05,9.33e-06,0.0,0 STARLINK-3962,1 52708U 22053BE  23171.69919038  .00000933  00000-0  76671-4 0  9999,2 52708  53.2168 271.8181 0001064  62.7790 297.3310 15.08844502 61615,6917.867,95.437,540.468,538.996,0.0
52708.0,STARLINK-3962,PAYLOAD,2023-06-21 11:51:27,15.08841796,0.0001156,53.2157,268.2504,67.5119,292.5996,5.2645e-05,5.5e-06,0.0,0 STARLINK-3962,1 52708U 22053BE  23172.49407280  .00000550  00000-0  52645-4 0  9999,2 52708  53.2157 268.2504 0001156  67.5119 292.5996 15.08841796 61105,6917.875,95.437,540.54,538.94,0.0
52708.0,STARLINK-3962,PAYLOAD,2023-06-21 13:26:50,15.08844689,0.0001075,53.2152,267.9548,67.9995,292.1111,8.5529e-05,1.074e-05,0.0,0 STARLINK-3962,1 52708U 22053BE  23172.56031114  .00001074  00000-0  85529-4 0  9995,2 52708  53.2152 267.9548 0001075  67.9995 292.1111 15.08844689 61749,6917.866,95.437,540.475,538.987,0.0
52708.0,STARLINK-3962,PAYLOAD,2023-06-22 16:28:24,15.08846662,0.0001019,53.2153,262.8993,72.9072,287.2032,0.00017604,2.515e-05,0.0,0 STARLINK-3962,1 52708U 22053BE  23173.68639098  .00002515  00000-0  17604-3 0  9993,2 52708  53.2153 262.8993 0001019  72.9072 287.2032 15.08846662 61287,6917.86,95.437,540.43,539.02,0.0
52708.0,STARLINK-3962,PAYLOAD,2023-06-23 09:57:38,15.08845241,0.0001074,53.2152,259.6278,79.9117,280.1997,0.00015127,2.121e-05,0.0,0 STARLINK-3962,1 52708U 22053BE  23174.41503213  .00002121  00000-0  15127-3 0  9995,2 52708  53.2152 259.6278 0001074  79.9117 280.1997 15.08845241 61390,6917.864,95.437,540.472,538.986,0.0
52708.0,STARLINK-3962,PAYLOAD,2023-06-23 22:40:43,15.08841373,0.0001152,53.2143,257.2478,81.5015,278.6107,5.1254e-05,5.28e-06,0.0,0 STARLINK-3962,1 52708U 22053BE  23174.94495262  .00000528  00000-0  51254-4 0  9998,2 52708  53.2143 257.2478 0001152  81.5015 278.6107 15.08841373 61475,6917.876,95.437,540.538,538.944,0.0
52708.0,STARLINK-3962,PAYLOAD,2023-06-25 00:06:54,15.08842029,0.0001136,53.2146,252.4915,82.3593,277.7528,0.00016226,2.296e-05,0.0,0 STARLINK-3962,1 52708U 22053BE  23176.00479458  .00002296  00000-0  16226-3 0  9999,2 52708  53.2146 252.4915 0001136  82.3593 277.7528 15.08842029 61637,6917.874,95.437,540.525,538.953,0.0
52708.0,STARLINK-3962,PAYLOAD,2023-06-26 01:33:04,15.08836931,0.0001197,53.2143,247.7339,88.6988,271.4142,8.5887e-05,1.079e-05,0.0,0 STARLINK-3962,1 52708U 22053BE  23177.06463766  .00001079  00000-0  85887-4 0  9999,2 52708  53.2143 247.7339 0001197  88.6988 271.4142 15.08836931 61790,6917.89,95.438,540.583,538.927,0.0
52708.0,STARLINK-3962,PAYLOAD,2023-06-27 10:56:10,15.08844123,0.0001116,53.2148,241.4881,94.9161,265.1959,0.00022346,3.271e-05,0.0,0 STARLINK-3962,1 52708U 22053BE  23178.45567843  .00003271  00000-0  22346-3 0  9990,2 52708  53.2148 241.4881 0001116  94.9161 265.1959 15.08844123 62005,6917.868,95.437,540.505,538.961,0.0
52708.0,STARLINK-3962,PAYLOAD,2023-06-28 04:25:25,15.08836656,0.000105,53.2151,238.2175,92.5275,267.5837,0.00010773,1.427e-05,0.0,0 STARLINK-3962,1 52708U 22053BE  23179.18432206  .00001427  00000-0  10773-3 0  9997,2 52708  53.2151 238.2175 0001050  92.5275 267.5837 15.08836656 62111,6917.891,95.438,540.482,539.029,0.0
52708.0,STARLINK-3962,PAYLOAD,2023-06-29 10:37:45,15.08837478,0.000111,53.2157,232.5679,95.2684,264.8435,4.4248e-05,4.16e-06,0.0,0 STARLINK-3962,1 52708U 22053BE  23180.44288462  .00000416  00000-0  44248-4 0  9993,2 52708  53.2157 232.5679 0001110  95.2684 264.8435 15.08837478 62302,6917.888,95.438,540.521,538.985,0.0
52708.0,STARLINK-3962,PAYLOAD,2023-06-30 13:39:18,15.08844219,0.0001073,53.2156,227.5124,90.0052,270.1063,0.00013794,1.908e-05,0.0,0 STARLINK-3962,1 52708U 22053BE  23181.56895908  .00001908  00000-0  13794-3 0  9994,2 52708  53.2156 227.5124 0001073  90.0052 270.1063 15.08844219 62476,6917.867,95.437,540.475,538.99,0.0
52708.0,STARLINK-3962,PAYLOAD,2023-07-01 02:22:23,15.08834221,0.0001054,53.2157,225.1338,91.8594,268.2518,6.6752e-05,7.75e-06,0.0,0 STARLINK-3962,1 52708U 22053BE  23182.09888768  .00000775  00000-0  66752-4 0  9993,2 52708  53.2157 225.1338 0001054  91.8594 268.2518 15.08834221 62551,6917.898,95.438,540.492,539.034,0.0
52708.0,STARLINK-3962,PAYLOAD,2023-07-02 10:10:06,15.08841606,0.0001024,53.2148,219.1847,90.2294,269.8816,1.9244e-05,1.9e-07,0.0,0 STARLINK-3962,1 52708U 22053BE  23183.42368606  .00000019  00000-0  19244-4 0  9990,2 52708  53.2148 219.1847 0001024  90.2294 269.8816 15.08841606 62751,6917.875,95.437,540.449,539.032,0.0
52708.0,STARLINK-3962,PAYLOAD,2023-07-04 01:54:44,15.08839137,0.000102,53.2152,211.7514,87.0134,273.0974,4.6901e-05,4.59e-06,0.0,0 STARLINK-3962,1 52708U 22053BE  23185.07968535  .00000459  00000-0  46901-4 0  9998,2 52708  53.2152 211.7514 0001020  87.0134 273.0974 15.08839137 63005,6917.883,95.438,540.454,539.042,0.0
52708.0,STARLINK-3962,PAYLOAD,2023-07-05 08:07:04,15.0884262,0.0001017,53.2155,206.1009,90.42,269.6909,-8.4814e-06,-4.23e-06,0.0,0 STARLINK-3962,1 52708U 22053BE  23186.33824377 -.00000423  00000-0 -84814-5 0  9992,2 52708  53.2155 206.1009 0001017  90.4200 269.6909 15.08842620 63193,6917.872,95.437,540.441,539.034,0.0
52708.0,STARLINK-3962,PAYLOAD,2023-07-06 07:57:51,15.08836272,9.64e-05,53.2153,201.6408,88.9375,271.1728,4.3869e-05,4.1e-06,0.0,0 STARLINK-3962,1 52708U 22053BE  23187.33184717  .00000410  00000-0  43869-4 0  9998,2 52708  53.2153 201.6408 0000964  88.9375 271.1728 15.08836272 63349,6917.892,95.438,540.424,539.09,0.0
52708.0,STARLINK-3962,PAYLOAD,2023-07-07 17:20:57,15.08837386,9.74e-05,53.2152,195.3955,85.6457,274.4646,3.3661e-05,2.48e-06,0.0,0 STARLINK-3962,1 52708U 22053BE  23188.72288906  .00000248  00000-0  33661-4 0  9995,2 52708  53.2152 195.3955 0000974  85.6457 274.4646 15.08837386 63555,6917.888,95.438,540.427,539.08,0.0
52708.0,STARLINK-3962,PAYLOAD,2023-07-09 01:08:40,15.088366,0.0001046,53.2154,189.4474,89.4404,270.6708,1.6024e-05,-3.3e-07,0.0,0 STARLINK-3962,1 52708U 22053BE  23190.04769304 -.00000033  00000-0  16024-4 0  9996,2 52708  53.2154 189.4474 0001046  89.4404 270.6708 15.08836600 63759,6917.891,95.438,540.479,539.032,0.0
52708.0,STARLINK-3962,PAYLOAD,2023-07-10 08:56:23,15.08838641,0.0001053,53.2154,183.5001,87.384,272.7273,5.4348e-05,5.77e-06,0.0,0 STARLINK-3962,1 52708U 22053BE  23191.37249309  .00000577  00000-0  54348-4 0  9994,2 52708  53.2154 183.5001 0001053  87.3840 272.7273 15.08838641 63958,6917.885,95.438,540.478,539.021,0.0
52708.0,STARLINK-3962,PAYLOAD,2023-07-11 16:44:05,15.08843732,0.0001049,53.2156,177.5528,85.5089,274.6023,8.7827e-05,1.11e-05,0.0,0 STARLINK-3962,1 52708U 22053BE  23192.69728786  .00001110  00000-0  87827-4 0  9993,2 52708  53.2156 177.5528 0001049  85.5089 274.6023 15.08843732 64151,6917.869,95.437,540.46,539.008,0.0
52708.0,STARLINK-3962,PAYLOAD,2023-07-13 05:17:58,15.08838979,0.0001156,53.2157,170.7122,93.5259,266.5866,-1.9788e-05,-6.03e-06,0.0,0 STARLINK-3962,1 52708U 22053BE  23194.22081276 -.00000603  00000-0 -19788-4 0  9999,2 52708  53.2157 170.7122 0001156  93.5259 266.5866 15.08838979 64381,6917.884,95.438,540.548,538.949,0.0
52708.0,STARLINK-3962,PAYLOAD,2023-07-14 08:19:31,15.08841324,0.0001123,53.2157,165.6583,92.201,267.9111,3.0461e-05,1.97e-06,0.0,0 STARLINK-3962,1 52708U 22053BE  23195.34689195  .00000197  00000-0  30461-4 0  9994,2 52708  53.2157 165.6583 0001123  92.2010 267.9111 15.08841324 64555,6917.876,95.437,540.518,538.964,0.0
